NUSAT-1 (FRESCO)        
1 41557U 16033B   22355.79808184  .00025113  00000+0  61270-3 0  9997
2 41557  97.3896  94.5274 0010686  66.8066  51.1950 15.40802829366162
BEESAT-4                
1 41619U 16040W   22355.08491216  .00024495  00000+0  66057-3 0  9990
2 41619  97.1920  41.1828 0008259 154.8229 205.3420 15.37758709349330
CAS-2T & KS-1Q          
1 41847U 16066G   22355.14005760  .00000908  00000+0  14520-3 0  9994
2 41847  98.5295  59.4266 0362661  11.3913 349.5211 14.38965955321194
NAYIF-1 (EO-88)         
1 42017U 17008BX  22355.42876708  .00034714  00000+0  79261-3 0  9995
2 42017  97.2465  59.4700 0002762 306.7935  53.3059 15.42790281325817
ZHUHAI-1 02 (CAS-4B)    
1 42759U 17034B   22355.59639872  .00007207  00000+0  40603-3 0  9999
2 42759  43.0183  20.0417 0009931  25.7021 122.0055 15.13609110304695
ZHUHAI-1 01 (CAS-4A)    
1 42761U 17034D   22355.55292594  .00006950  00000+0  39094-3 0  9990
2 42761  43.0188  18.9316 0010077  28.3974 106.3238 15.13706378304698
MAX VALIER SAT          
1 42778U 17036P   22355.54826012  .00014661  00000+0  49447-3 0  9998
2 42778  97.1830  30.3825 0010691  29.1853 330.9984 15.30755380305487
RADFXSAT (FOX-1B)       
1 43017U 17073E   22355.18281727  .00007645  00000+0  56407-3 0  9992
2 43017  97.6533 241.6612 0241914 295.7900  61.8534 14.83036857274774
FOX-1D (AO-92)          
1 43137U 18004AC  22355.44462822  .00017988  00000+0  54853-3 0  9990
2 43137  97.3525  69.2386 0008289  62.8651 297.3436 15.33969035274966
DIWATA-2B               
1 43678U 18084H   22355.78744019  .00000970  00000+0  10007-3 0  9992
2 43678  97.9950 131.6060 0010612  34.0191 326.1725 14.92566234225797
ES'HAIL 2               
1 43700U 18090A   22355.47195313  .00000169  00000+0  00000+0 0  9996
2 43700   0.0049  83.4750 0001263 228.4287 333.8118  1.00270833 14906
FOX-1CLIFF (AO-95)      
1 43770U 18099N   22355.15950940  .00003645  00000+0  31703-3 0  9992
2 43770  97.5998  56.5470 0014147  13.7176 346.4428 14.97500041220948
ITASAT 1                
1 43786U 18099AE  22355.14229061  .00003703  00000+0  32187-3 0  9993
2 43786  97.6044  57.5373 0014773   9.4288 350.7209 14.97511175220981
JY1SAT (JO-97)          
1 43803U 18099AX  22355.21900739  .00003740  00000+0  31886-3 0  9995
2 43803  97.5998  57.4464 0014700   6.1306 354.0094 14.98252224221026
UWE-4                   
1 43880U 18111E   22355.48044091  .00005356  00000+0  44116-3 0  9999
2 43880  97.6573 258.5128 0013209  61.8391 298.4165 14.99424314217710
NEXUS (FO-99)           
1 43937U 19003F   22355.62725211  .00022602  00000+0  63544-3 0  9998
2 43937  97.1113  22.1145 0017110 196.4747 163.5943 15.36363222218659
PSAT2 (NO-104)          
1 44354U 19036R   22355.52489840  .00215172  64525-5  90591-3 0  9998
2 44354  28.5203 296.6437 0128074 319.5752  39.5398 15.72529437193772
JAISAT-1                
1 44419U 19038F   22355.66661605  .00014049  00000+0  63264-3 0  9997
2 44419  97.6581 327.9767 0016696 197.3667 162.6999 15.21064944191478
DUCHIFAT-3              
1 44854U 19089C   22355.56579789  .00006659  00000+0  49485-3 0  9993
2 44854  36.9642  69.9211 0008064 306.6880 186.7235 15.02676456166078
CAS-6 (TIANQIN 1)       
1 44881U 19093C   22355.82519961  .00000881  00000+0  11761-3 0  9990
2 44881  97.8796  72.2266 0013722 299.4615  60.5214 14.81984488162528
RS-44 & BREEZE-KM R/B   
1 44909U 19096E   22355.43668179  .00000004  00000+0 -24195-4 0  9991
2 44909  82.5215 106.0621 0216646 242.3864 115.5091 12.79717230139421
ORBITAL FACTORY 2 (OF-2)
1 45113U 19071C   22355.32205495  .00078578  00000+0  92308-3 0  9998
2 45113  51.6320 211.7927 0010935 151.2415 208.9183 15.60691872162385
HUSKYSAT-1 (HO-107)     
1 45119U 19071J   22355.34688193  .00061518  00000+0  82580-3 0  9993
2 45119  51.6333 214.1729 0010693 145.3901 214.7789 15.57273194162349
BY70-2                  
1 45857U 20042B   22355.84311870  .00011825  00000+0  14682-2 0  9995
2 45857  97.9428  71.1009 0009512 221.4467 138.6013 14.82726050133195
SALSAT                  
1 46495U 20068K   22355.39783764  .00004730  00000+0  33214-3 0  9997
2 46495  97.7501 297.0516 0016469   8.8901 351.2613 15.05523956122301
BY70-3                  
1 46839U 20079N   22355.79906804  .00062315  00000+0  94561-3 0  9992
2 46839  97.1789  66.5110 0004175  26.6533 114.0914 15.54392460119206
RADFXSAT-2 (AO-109)     
1 47311U 21002C   22355.35682935  .00013828  00000+0  48330-3 0  9991
2 47311  60.6845  16.9057 0038830  85.8270 274.7257 15.29163220107000
UVSQ-SAT                
1 47438U 21006AB  22355.43740359  .00010334  00000+0  50595-3 0  9994
2 47438  97.4143  50.6392 0010962 353.1937   6.9147 15.18308739105626
DIY-1 (ARDUIQUBE)       
1 47963U 21022AH  22355.18756956  .00035698  00000+0  15755-2 0  9995
2 47963  97.5178 255.0688 0012325 198.7535 161.3249 15.21602370 95257
XW-3 (CAS-9)            
1 50466U 21131B   22355.76206609  .00000346  00000+0  12753-3 0  9995
2 50466  98.5678  72.8010 0003605 318.1507  41.9404 14.38599885 51843
TEVEL-3                 
1 50988U 22002E   22355.79944466  .00012274  00000+0  61402-3 0  9993
2 50988  97.4608  59.7672 0010038 128.6699  14.5496 15.17520822 51799
TEVEL-8                 
1 50989U 22002F   22355.80232598  .00012142  00000+0  60845-3 0  9996
2 50989  97.4625  59.8089 0010197 128.1551 326.7095 15.17463472 51790
TEVEL-5                 
1 50998U 22002Q   22355.75853124  .00012585  00000+0  61923-3 0  9993
2 50998  97.4607  59.9415 0011625 125.1843  23.8034 15.18080730 51805
TEVEL-6                 
1 50999U 22002R   22355.75744693  .00012562  00000+0  61799-3 0  9990
2 50999  97.4599  59.9371 0011664 125.0143  23.4123 15.18087197 51801
TEVEL-1                 
1 51013U 22002AF  22355.79636069  .00012216  00000+0  61170-3 0  9998
2 51013  97.4601  59.7284 0009930 128.7594 327.2830 15.17490023 51790
TEVEL-7                 
1 51062U 22002CG  22355.73859813  .00012145  00000+0  60862-3 0  9998
2 51062  97.4619  59.7251 0010285 127.7266 328.0067 15.17461883 51789
TEVEL-4                 
1 51063U 22002CH  22355.74050226  .00012048  00000+0  60414-3 0  9996
2 51063  97.4621  59.7200 0010215 127.2803 328.2552 15.17441588 51783
TEVEL-2                 
1 51069U 22002CP  22355.79254378  .00012287  00000+0  61479-3 0  9998
2 51069  97.4596  59.7388 0009963 128.4664 327.2479 15.17516481 51796
GREENCUBE               
1 53106U 22080B   22354.06292525 -.00000003  00000+0  00000+0 0  9996
2 53106  70.1740  21.9554 0009007 225.1214 134.8715  6.42557574 10246
YUZGU 9 (RS3S)          
1 53308U 98067TT  22355.46067076  .00203487  00000+0  13446-2 0  9995
2 53308  51.6336 118.8535 0005628 269.3747  90.6607 15.74406216 23903
YUZGU 7 (RS1S)          
1 53309U 98067TU  22355.74761839  .00211888  00000+0  13328-2 0  9998
2 53309  51.6324 117.0095 0006270 274.2960  85.7323 15.75510141 23903
YUZGU 11 (RS5S)         
1 53310U 98067TV  22355.64947124  .00211670  00000+0  13868-2 0  9990
2 53310  51.6340 117.8640 0005811 269.9764  90.0569 15.74576979 23912
YUZGU 12 (RS6S)         
1 53311U 98067TW  22355.20813483  .00244265  00000+0  14721-2 0  9998
2 53311  51.6311 119.4034 0005765 272.6126  87.4214 15.76393522 23872
TSIOLKOVSKY-RYAZAN 1 (*)
1 53312U 98067TX  22355.75432865  .00211002  00000+0  13483-2 0  9997
2 53312  51.6321 117.0642 0006601 274.9532  85.0714 15.75148816 23893
TSIOLKOVSKY-RYAZAN 2 (*)
1 53313U 98067TY  22355.74826710  .00213870  00000+0  13599-2 0  9996
2 53313  51.6338 117.0251 0006162 277.3509  82.6790 15.75256982 23948
YUZGU 10 (RS4S)         
1 53321U 98067TZ  22355.76401476  .00197205  00000+0  12737-2 0  9991
2 53321  51.6332 117.1271 0005898 271.7209  88.3115 15.74950227 23940
RS29S (SXC3-2110 CYCLO*)
1 53373U 22096D   22355.81143626  .00017062  00000+0  62953-3 0  9991
2 53373  97.4277 256.4630 0003374  71.7842 329.4331 15.27839776 20519
RS32S (SXC3-212 MONITO*)
1 53374U 22096E   22355.80330620  .00015795  00000+0  58303-3 0  9998
2 53374  97.4276 256.4668 0003377  69.3523 332.3203 15.27841766 20515
RS34S (SXC3-218 KUZBAS*)
1 53375U 22096F   22355.82684382  .00012985  00000+0  48673-3 0  9995
2 53375  97.4283 256.4554 0003477  63.4957  12.6750 15.27380252 20518
RS23S (SXC3-21 UTMN)    
1 53376U 22096G   22355.75958351  .00014525  00000+0  54232-3 0  9998
2 53376  97.4281 256.3980 0003276  65.3663  23.6099 15.27483973 20502
RS28S (SXC3-214 MIET-A*)
1 53377U 22096H   22355.75975984  .00013678  00000+0  51237-3 0  9990
2 53377  97.4279 256.3988 0003475  65.2907  22.8943 15.27388429 20508
RS26S (KAI-1)           
1 53378U 22096J   22355.76714185  .00012009  00000+0  45364-3 0  9997
2 53378  97.4285 256.3875 0003316  57.3084  29.4804 15.27143101 20508
RS19S (SXC3-219 ISOI)   
1 53381U 22096M   22355.78286106  .00013953  00000+0  51433-3 0  9993
2 53381  97.4283 256.5165 0004221   2.5529  81.6489 15.27914375 20515
RS21S (CUBESX-HSE-2)    
1 53383U 22096P   22355.84157726  .00014446  00000+0  53120-3 0  9990
2 53383  97.4278 256.5866 0004385   1.3576  66.7702 15.27984660 20526
RS30S (SXC3-217 SIREN)  
1 53384U 22096Q   22355.84638887  .00012952  00000+0  47990-3 0  9991
2 53384  97.4287 256.5777 0004426 358.4004  66.7013 15.27760520 20528
RS20S (GEOSCAN-EDELVEIS)
1 53385U 22096R   22355.86583524  .00018052  00000+0  64574-3 0  9995
2 53385  97.4274 256.7006 0004570   0.3438  64.1604 15.28843324 20563
RS33S (SXC3-215 VIZARD) 
1 53386U 22096S   22355.75921608  .00020807  00000+0  72351-3 0  9996
2 53386  97.4279 256.6965 0005611 356.3253  88.7833 15.29733908 20549
CAS-5A (FO-118)         
1 54684U 22167C   22355.81530250  .00008950  00000+0  57010-3 0  9993
2 54684  97.5379 130.5919 0014111 221.8440 300.0600 15.08900557  1882
CUTE-1 (CO-55)          
1 27844U 03031E   22354.96401951  .00000330  00000+0  16712-3 0  9998
2 27844  98.6791 359.8519 0008808 283.4524  76.5672 14.22563733 10391
